NORAD_CAT_ID,OBJECT_NAME,OBJECT_TYPE,EPOCH,MEAN_MOTION,ECCENTRICITY,INCLINATION,RA_OF_ASC_NODE,ARG_OF_PERICENTER,MEAN_ANOMALY,BSTAR,MEAN_MOTION_DOT,MEAN_MOTION_DDOT,TLE_LINE0,TLE_LINE1,TLE_LINE2,SEMIMAJOR_AXIS,PERIOD,APOGEE,PERIGEE,DECAYED
49754.0,STARLINK-3193,PAYLOAD,2023-10-17 18:35:13,15.08845805,0.0001318,53.2163,102.3849,85.8913,274.2229,0.00014817,2.071e-05,0.0,0 STARLINK-3193,1 49754U 21115AG  23290.77446664  .00002071  00000-0  14817-3 0  9993,2 49754  53.2163 102.3849 0001318  85.8913 274.2229 15.08845805103742,6917.863,95.437,540.639,538.816,0.0
49754.0,STARLINK-3193,PAYLOAD,2023-10-18 12:04:29,15.08836525,0.0001431,53.2174,99.1147,75.922,284.1931,3.6812e-05,2.98e-06,0.0,0 STARLINK-3193,1 49754U 21115AG  23291.50311661  .00000298  00000-0  36812-4 0  9992,2 49754  53.2174  99.1147 0001431  75.9220 284.1931 15.08836525104969,6917.891,95.438,540.746,538.766,0.0
49754.0,STARLINK-3193,PAYLOAD,2023-10-18 13:39:52,15.08835674,0.0001438,53.2164,98.8169,82.3684,277.7471,3.316e-05,2.4e-06,0.0,0 STARLINK-3193,1 49754U 21115AG  23291.56935690  .00000240  00000-0  33160-4 0  9992,2 49754  53.2164  98.8169 0001438  82.3684 277.7471 15.08835674103860,6917.894,95.438,540.753,538.764,0.0
49754.0,STARLINK-3193,PAYLOAD,2023-10-19 03:58:20,15.08840981,0.0001222,53.217,96.1397,82.7624,277.3507,7.9523e-05,9.78e-06,0.0,0 STARLINK-3193,1 49754U 21115AG  23292.16551245  .00000978  00000-0  79523-4 0  9990,2 49754  53.2170  96.1397 0001222  82.7624 277.3507 15.08840981103953,6917.877,95.437,540.588,538.897,0.0
49754.0,STARLINK-3193,PAYLOAD,2023-10-19 19:52:11,15.08848046,9.73e-05,53.217,93.1658,76.2938,283.8162,4.99e-05,5.07e-06,0.0,0 STARLINK-3193,1 49754U 21115AG  23292.82790711  .00000507  00000-0  49900-4 0  9990,2 49754  53.2170  93.1658 0000973  76.2938 283.8162 15.08848046105162,6917.856,95.437,540.394,539.048,0.0
49754.0,STARLINK-3193,PAYLOAD,2023-10-19 21:27:34,15.08850298,9.45e-05,53.2167,92.8682,77.9365,282.1733,6.9594e-05,8.2e-06,0.0,0 STARLINK-3193,1 49754U 21115AG  23292.89414472  .00000820  00000-0  69594-4 0  9993,2 49754  53.2167  92.8682 0000945  77.9365 282.1733 15.08850298104068,6917.849,95.437,540.368,539.06,0.0
49754.0,STARLINK-3193,PAYLOAD,2023-10-20 10:10:40,15.08833698,0.0001754,53.2163,90.4882,84.88,275.2392,5.1346e-05,5.29e-06,0.0,0 STARLINK-3193,1 49754U 21115AG  23293.42407811  .00000529  00000-0  51346-4 0  9994,2 49754  53.2163  90.4882 0001754  84.8800 275.2392 15.08833698105251,6917.9,95.438,540.978,538.551,0.0
49754.0,STARLINK-3193,PAYLOAD,2023-10-21 13:12:13,15.08843275,0.0002216,53.216,85.4319,81.9212,278.2031,2.6354e-05,1.31e-06,0.0,0 STARLINK-3193,1 49754U 21115AG  23294.55015470  .00000131  00000-0  26354-4 0  9995,2 49754  53.2160  85.4319 0002216  81.9212 278.2031 15.08843275104317,6917.87,95.437,541.268,538.202,0.0
49754.0,STARLINK-3193,PAYLOAD,2023-10-21 16:22:59,15.08844545,0.0001178,53.2165,84.8411,87.5563,272.5564,6.0379e-05,6.73e-06,0.0,0 STARLINK-3193,1 49754U 21115AG  23294.68262962  .00000673  00000-0  60379-4 0  9995,2 49754  53.2165  84.8411 0001178  87.5563 272.5564 15.08844545105449,6917.866,95.437,540.546,538.917,0.0
49754.0,STARLINK-3193,PAYLOAD,2023-10-22 09:52:14,15.08831091,0.0002136,53.2163,81.568,90.9394,269.1843,4.503e-05,4.28e-06,0.0,0 STARLINK-3193,1 49754U 21115AG  23295.41128260  .00000428  00000-0  45030-4 0  9994,2 49754  53.2163  81.5680 0002136  90.9394 269.1843 15.08831091105550,6917.908,95.438,541.25,538.295,0.0
49754.0,STARLINK-3193,PAYLOAD,2023-10-22 14:38:24,15.08826145,0.0001773,53.2162,80.6756,97.3955,262.7238,-3.7839e-05,-8.9e-06,0.0,0 STARLINK-3193,1 49754U 21115AG  23295.61000773 -.00000890  00000-0 -37839-4 0  9997,2 49754  53.2162  80.6756 0001773  97.3955 262.7238 15.08826145104474,6917.923,95.438,541.014,538.561,0.0
49754.0,STARLINK-3193,PAYLOAD,2023-10-22 16:13:47,15.08826178,0.0001408,53.2166,80.3792,100.7851,259.33,-4.322e-05,-9.75e-06,0.0,0 STARLINK-3193,1 49754U 21115AG  23295.67624750 -.00000975  00000-0 -43220-4 0  9995,2 49754  53.2166  80.3792 0001408 100.7851 259.3300 15.08826178104483,6917.923,95.438,540.762,538.814,0.0
49754.0,STARLINK-3193,PAYLOAD,2023-10-23 03:21:29,15.08836642,0.0001531,53.2171,78.2963,106.6294,253.4866,1.2682e-05,-8.6e-07,0.0,0 STARLINK-3193,1 49754U 21115AG  23296.13992257 -.00000086  00000-0  12682-4 0  9997,2 49754  53.2171  78.2963 0001531 106.6294 253.4866 15.08836642104555,6917.891,95.438,540.815,538.697,0.0
49754.0,STARLINK-3193,PAYLOAD,2023-10-24 09:33:48,15.08836008,0.0001529,53.2173,72.6466,105.4827,254.6334,0.00022439,3.285e-05,0.0,0 STARLINK-3193,1 49754U 21115AG  23297.39847915  .00003285  00000-0  22439-3 0  9999,2 49754  53.2173  72.6466 0001529 105.4827 254.6334 15.08836008105852,6917.893,95.438,540.815,538.7,0.0
49754.0,STARLINK-3193,PAYLOAD,2023-10-25 14:10:45,15.088423,0.0001412,53.2184,67.2962,84.6133,275.502,5.3233e-05,5.59e-06,0.0,0 STARLINK-3193,1 49754U 21115AG  23298.59080230  .00000559  00000-0  53233-4 0  9999,2 49754  53.2184  67.2962 0001412  84.6133 275.5020 15.08842300106031,6917.873,95.437,540.715,538.762,0.0
49754.0,STARLINK-3193,PAYLOAD,2023-10-26 12:26:09,15.08835952,0.0001364,53.2176,63.1334,92.2767,267.8381,3.824e-05,3.21e-06,0.0,0 STARLINK-3193,1 49754U 21115AG  23299.51816666  .00000321  00000-0  38240-4 0  9990,2 49754  53.2176  63.1334 0001364  92.2767 267.8381 15.08835952106178,6917.893,95.438,540.701,538.814,0.0
49754.0,STARLINK-3193,PAYLOAD,2023-10-26 14:01:32,15.08838964,0.0001468,53.2174,62.8348,92.2186,267.8974,6.6642e-05,7.73e-06,0.0,0 STARLINK-3193,1 49754U 21115AG  23299.58440392  .00000773  00000-0  66642-4 0  9994,2 49754  53.2174  62.8348 0001468  92.2186 267.8974 15.08838964105079,6917.884,95.438,540.764,538.733,0.0
49754.0,STARLINK-3193,PAYLOAD,2023-10-27 01:09:13,15.08845712,0.0001372,53.2183,60.7545,81.6362,278.4785,0.00010927,1.452e-05,0.0,0 STARLINK-3193,1 49754U 21115AG  23300.04807870  .00001452  00000-0  10927-3 0  9995,2 49754  53.2183  60.7545 0001372  81.6362 278.4785 15.08845712106255,6917.863,95.437,540.677,538.779,0.0
49754.0,STARLINK-3193,PAYLOAD,2023-10-27 10:41:33,15.08841466,0.0001375,53.2181,58.9702,83.3634,276.7515,6.0981e-05,6.83e-06,0.0,0 STARLINK-3193,1 49754U 21115AG  23300.44552195  .00000683  00000-0  60981-4 0  9997,2 49754  53.2181  58.9702 0001375  83.3634 276.7515 15.08841466105209,6917.876,95.437,540.692,538.79,0.0
49754.0,STARLINK-3193,PAYLOAD,2023-10-27 17:03:05,15.08842993,0.0001273,53.2185,57.7807,79.1552,280.9583,5.8562e-05,6.44e-06,0.0,0 STARLINK-3193,1 49754U 21115AG  23300.71048023  .00000644  00000-0  58562-4 0  9996,2 49754  53.2185  57.7807 0001273  79.1552 280.9583 15.08842993105247,6917.871,95.437,540.617,538.856,0.0
49754.0,STARLINK-3193,PAYLOAD,2023-10-28 13:43:07,15.08827728,0.0001288,53.2177,53.9163,87.8542,272.2598,2.3994e-05,9.4e-07,0.0,0 STARLINK-3193,1 49754U 21115AG  23301.57161420  .00000094  00000-0  23994-4 0  9998,2 49754  53.2177  53.9163 0001288  87.8542 272.2598 15.08827728106488,6917.918,95.438,540.674,538.892,0.0
49754.0,STARLINK-3193,PAYLOAD,2023-10-28 15:18:30,15.0883851,0.000135,53.2184,53.6175,86.2711,273.8436,-4.3827e-06,-3.58e-06,0.0,0 STARLINK-3193,1 49754U 21115AG  23301.63784834 -.00000358  00000-0 -43827-5 0  9998,2 49754  53.2184  53.6175 0001350  86.2711 273.8436 15.08838510106497,6917.885,95.438,540.684,538.816,0.0
49754.0,STARLINK-3193,PAYLOAD,2023-10-29 00:50:48,15.08847016,0.0001399,53.2185,51.8327,85.0391,275.0761,5.5499e-05,5.96e-06,0.0,0 STARLINK-3193,1 49754U 21115AG  23302.03528126  .00000596  00000-0  55499-4 0  9992,2 49754  53.2185  51.8327 0001399  85.0391 275.0761 15.08847016106554,6917.859,95.437,540.692,538.756,0.0
49754.0,STARLINK-3193,PAYLOAD,2023-10-29 13:33:52,15.08860168,0.0001258,53.2174,49.4543,83.2076,276.9059,0.00030824,4.624e-05,0.0,0 STARLINK-3193,1 49754U 21115AG  23302.56519177  .00004624  00000-0  30824-3 0  9996,2 49754  53.2174  49.4543 0001258  83.2076 276.9059 15.08860168106631,6917.819,95.436,540.554,538.813,0.0
49754.0,STARLINK-3193,PAYLOAD,2023-10-30 11:49:17,15.08831227,0.0001606,53.2177,45.2913,98.3062,261.8112,-9.8896e-05,-1.861e-05,0.0,0 STARLINK-3193,1 49754U 21115AG  23303.49256588 -.00001861  00000-0 -98896-4 0  9999,2 49754  53.2177  45.2913 0001606  98.3062 261.8112 15.08831227106770,6917.907,95.438,540.883,538.661,0.0
49754.0,STARLINK-3193,PAYLOAD,2023-10-30 16:35:26,15.08837199,0.0001659,53.2183,44.3992,98.904,261.214,-5.6752e-06,-3.78e-06,0.0,0 STARLINK-3193,1 49754U 21115AG  23303.69128273 -.00000378  00000-0 -56752-5 0  9998,2 49754  53.2183  44.3992 0001659  98.9040 261.2140 15.08837199105693,6917.889,95.438,540.902,538.606,0.0
49754.0,STARLINK-3193,PAYLOAD,2023-10-31 13:15:28,15.08836738,0.0001665,53.2179,40.5327,90.4371,269.6812,0.00045766,7.003e-05,0.0,0 STARLINK-3193,1 49754U 21115AG  23304.55241298  .00007003  00000-0  45766-3 0  9998,2 49754  53.2179  40.5327 0001665  90.4371 269.6812 15.08836738106933,6917.89,95.438,540.907,538.604,0.0
49754.0,STARLINK-3193,PAYLOAD,2023-10-31 16:26:14,15.08840565,0.0001658,53.2179,39.9378,90.2148,269.9034,0.00059007,9.116e-05,0.0,0 STARLINK-3193,1 49754U 21115AG  23304.68489296  .00009116  00000-0  59007-3 0  9994,2 49754  53.2179  39.9378 0001658  90.2148 269.9034 15.08840565105844,6917.879,95.438,540.891,538.597,0.0
49754.0,STARLINK-3193,PAYLOAD,2023-11-01 13:06:15,15.08860772,0.0001375,53.2183,36.0732,87.5676,272.5474,0.00096671,0.00015139,0.0,0 STARLINK-3193,1 49754U 21115AG  23305.54600886  .00015139  00000-0  96671-3 0  9990,2 49754  53.2183  36.0732 0001375  87.5676 272.5474 15.08860772105976,6917.817,95.436,540.633,538.731,0.0
49754.0,STARLINK-3193,PAYLOAD,2023-11-01 14:41:38,15.08865515,0.0001389,53.2182,35.776,87.3525,272.7627,0.0012928,0.00020361,0.0,0 STARLINK-3193,1 49754U 21115AG  23305.61224867  .00020361  00000-0  12928-2 0  9994,2 49754  53.2182  35.7760 0001389  87.3525 272.7627 15.08865515107095,6917.802,95.436,540.628,538.707,0.0
